{
  "type": "FeatureCollection",
  "features": [
    {
      "type": "Feature",
      "properties": {
        "norad_id": 66658,
        "name": "2025-274J",
        "group": "last-30-days",
        "lat": -73.69808532598883,
        "lon": -66.98790804971064,
        "alt_km": 590.1351716863282,
        "timestamp": "2025-12-03T22:42:31.477483+00:00",
        "meta_object_name": "2025-274J",
        "meta_object_id": "2025-274J",
        "meta_epoch": "2025-12-03T08:33:55.405728",
        "meta_mean_motion": 14.92532646,
        "meta_eccentricity": 0.0011742,
        "meta_inclination": 97.7381,
        "meta_ra_of_asc_node": 264.7266,
        "meta_arg_of_pericenter": 314.6761,
        "meta_mean_anomaly": 45.35,
        "meta_ephemeris_type": 0,
        "meta_classification_type": "U",
        "meta_norad_cat_id": 66658,
        "meta_element_set_no": 999,
        "meta_rev_at_epoch": 100,
        "meta_bstar": 0.00049949,
        "meta_mean_motion_dot": 5.083e-05,
        "meta_mean_motion_ddot": 0,
        "tle_line1": "1 66658U 25274J   25337.35689127  .00005083  00000+0  49949-3 0  9995",
        "tle_line2": "2 66658  97.7381 264.7266 0011742 314.6761  45.3500 14.92532646  1004"
      },
      "geometry": {
        "type": "Point",
        "coordinates": [
          -66.98790804971064,
          -73.69808532598883
        ]
      }
    },
    {
      "type": "Feature",
      "properties": {
        "norad_id": 66659,
        "name": "JACK K",
        "group": "last-30-days",
        "lat": -69.31764105525019,
        "lon": -73.58028611213605,
        "alt_km": 588.8197677885346,
        "timestamp": "2025-12-03T22:42:31.477492+00:00",
        "meta_object_name": "JACK K",
        "meta_object_id": "2025-274K",
        "meta_epoch": "2025-12-03T06:56:11.914656",
        "meta_mean_motion": 14.92717917,
        "meta_eccentricity": 0.0012467,
        "meta_inclination": 97.7382,
        "meta_ra_of_asc_node": 264.662,
        "meta_arg_of_pericenter": 315.9556,
        "meta_mean_anomaly": 44.0669,
        "meta_ephemeris_type": 0,
        "meta_classification_type": "U",
        "meta_norad_cat_id": 66659,
        "meta_element_set_no": 999,
        "meta_rev_at_epoch": 99,
        "meta_bstar": 0.00049135,
        "meta_mean_motion_dot": 5.023e-05,
        "meta_mean_motion_ddot": 0,
        "tle_line1": "1 66659U 25274K   25337.28902679  .00005023  00000+0  49135-3 0  9999",
        "tle_line2": "2 66659  97.7382 264.6620 0012467 315.9556  44.0669 14.92717917   995"
      },
      "geometry": {
        "type": "Point",
        "coordinates": [
          -73.58028611213605,
          -69.31764105525019
        ]
      }
    },
    {
      "type": "Feature",
      "properties": {
        "norad_id": 66660,
        "name": "K-HERO",
        "group": "last-30-days",
        "lat": -65.65955377526444,
        "lon": -77.19577586965546,
        "alt_km": 587.6968078865475,
        "timestamp": "2025-12-03T22:42:31.477504+00:00",
        "meta_object_name": "K-HERO",
        "meta_object_id": "2025-274L",
        "meta_epoch": "2025-12-03T08:31:45.761664",
        "meta_mean_motion": 14.92870301,
        "meta_eccentricity": 0.0013093,
        "meta_inclination": 97.7387,
        "meta_ra_of_asc_node": 264.7291,
        "meta_arg_of_pericenter": 316.1933,
        "meta_mean_anomaly": 43.8247,
        "meta_ephemeris_type": 0,
        "meta_classification_type": "U",
        "meta_norad_cat_id": 66660,
        "meta_element_set_no": 999,
        "meta_rev_at_epoch": 100,
        "meta_bstar": 0.0005183,
        "meta_mean_motion_dot": 5.323e-05,
        "meta_mean_motion_ddot": 0,
        "tle_line1": "1 66660U 25274L   25337.35539076  .00005323  00000+0  51830-3 0  9994",
        "tle_line2": "2 66660  97.7387 264.7291 0013093 316.1933  43.8247 14.92870301  1004"
      },
      "geometry": {
        "type": "Point",
        "coordinates": [
          -77.19577586965546,
          -65.65955377526444
        ]
      }
    },
    {
      "type": "Feature",
      "properties": {
        "norad_id": 66661,
        "name": "SNUGLITE-III",
        "group": "last-30-days",
        "lat": -61.82615430532496,
        "lon": -79.98166660615506,
        "alt_km": 586.5309915006465,
        "timestamp": "2025-12-03T22:42:31.477514+00:00",
        "meta_object_name": "SNUGLITE-III",
        "meta_object_id": "2025-274M",
        "meta_epoch": "2025-12-03T02:04:43.927392",
        "meta_mean_motion": 14.93017228,
        "meta_eccentricity": 0.0013814,
        "meta_inclination": 97.7382,
        "meta_ra_of_asc_node": 264.4661,
        "meta_arg_of_pericenter": 317.8272,
        "meta_mean_anomaly": 42.1883,
        "meta_ephemeris_type": 0,
        "meta_classification_type": "U",
        "meta_norad_cat_id": 66661,
        "meta_element_set_no": 999,
        "meta_rev_at_epoch": 96,
        "meta_bstar": 0.00040938,
        "meta_mean_motion_dot": 4.208e-05,
        "meta_mean_motion_ddot": 0,
        "tle_line1": "1 66661U 25274M   25337.08661953  .00004208  00000+0  40938-3 0  9993",
        "tle_line2": "2 66661  97.7382 264.4661 0013814 317.8272  42.1883 14.93017228   967"
      },
      "geometry": {
        "type": "Point",
        "coordinates": [
          -79.98166660615506,
          -61.82615430532496
        ]
      }
    },
    {
      "type": "Feature",
      "properties": {
        "norad_id": 66662,
        "name": "2025-274N",
        "group": "last-30-days",
        "lat": -60.1340181992091,
        "lon": -80.98982117830606,
        "alt_km": 585.9572415112507,
        "timestamp": "2025-12-03T22:42:31.477523+00:00",
        "meta_object_name": "2025-274N",
        "meta_object_id": "2025-274N",
        "meta_epoch": "2025-12-03T08:30:19.651104",
        "meta_mean_motion": 14.93080124,
        "meta_eccentricity": 0.0014176,
        "meta_inclination": 97.7384,
        "meta_ra_of_asc_node": 264.7302,
        "meta_arg_of_pericenter": 316.222,
        "meta_mean_anomaly": 43.7875,
        "meta_ephemeris_type": 0,
        "meta_classification_type": "U",
        "meta_norad_cat_id": 66662,
        "meta_element_set_no": 999,
        "meta_rev_at_epoch": 100,
        "meta_bstar": 0.00030347,
        "meta_mean_motion_dot": 3.11e-05,
        "meta_mean_motion_ddot": 0,
        "tle_line1": "1 66662U 25274N   25337.35439411  .00003110  00000+0  30347-3 0  9990",
        "tle_line2": "2 66662  97.7384 264.7302 0014176 316.2220  43.7875 14.93080124  1002"
      },
      "geometry": {
        "type": "Point",
        "coordinates": [
          -80.98982117830606,
          -60.1340181992091
        ]
      }
    },
    {
      "type": "Feature",
      "properties": {
        "norad_id": 66663,
        "name": "KSLV-II R/B",
        "group": "last-30-days",
        "lat": 50.91951619128119,
        "lon": -104.26841250718657,
        "alt_km": 557.2503437345131,
        "timestamp": "2025-12-03T22:42:31.477532+00:00",
        "meta_object_name": "KSLV-II R/B",
        "meta_object_id": "2025-274P",
        "meta_epoch": "2025-12-02T09:35:20.901408",
        "meta_mean_motion": 14.972028,
        "meta_eccentricity": 0.00441352,
        "meta_inclination": 97.7406,
        "meta_ra_of_asc_node": 263.8419,
        "meta_arg_of_pericenter": 353.0151,
        "meta_mean_anomaly": 7.045,
        "meta_ephemeris_type": 0,
        "meta_classification_type": "U",
        "meta_norad_cat_id": 66663,
        "meta_element_set_no": 999,
        "meta_rev_at_epoch": 86,
        "meta_bstar": -0.00028812216,
        "meta_mean_motion_dot": -3.459e-05,
        "meta_mean_motion_ddot": 0,
        "tle_line1": "1 66663U 25274P   25336.39954747 -.00003459  00000+0 -28812-3 0  9990",
        "tle_line2": "2 66663  97.7406 263.8419 0044135 353.0151   7.0450 14.97202800   863"
      },
      "geometry": {
        "type": "Point",
        "coordinates": [
          -104.26841250718657,
          50.91951619128119
        ]
      }
    },
    {
      "type": "Feature",
      "properties": {
        "norad_id": 66664,
        "name": "SOYUZ-MS 28",
        "group": "last-30-days",
        "lat": -51.51512853615161,
        "lon": 91.27451196476025,
        "alt_km": 422.3962772788591,
        "timestamp": "2025-12-03T22:42:31.477542+00:00",
        "meta_object_name": "SOYUZ-MS 28",
        "meta_object_id": "2025-275A",
        "meta_epoch": "2025-12-03T10:43:27.497856",
        "meta_mean_motion": 15.49271748,
        "meta_eccentricity": 0.0003633,
        "meta_inclination": 51.6306,
        "meta_ra_of_asc_node": 188.4862,
        "meta_arg_of_pericenter": 200.0092,
        "meta_mean_anomaly": 160.0755,
        "meta_ephemeris_type": 0,
        "meta_classification_type": "U",
        "meta_norad_cat_id": 66664,
        "meta_element_set_no": 999,
        "meta_rev_at_epoch": 100,
        "meta_bstar": 0.00021633,
        "meta_mean_motion_dot": 0.000116,
        "meta_mean_motion_ddot": 0,
        "tle_line1": "1 66664U 25275A   25337.44684604  .00011600  00000+0  21633-3 0  9990",
        "tle_line2": "2 66664  51.6306 188.4862 0003633 200.0092 160.0755 15.49271748  1009"
      },
      "geometry": {
        "type": "Point",
        "coordinates": [
          91.27451196476025,
          -51.51512853615161
        ]
      }
    }
  ]
}